[{"OBJECT_NAME":"STARLINK-36920","OBJECT_ID":"2026-037R","EPOCH":"2026-03-09T22:00:01.999584","MEAN_MOTION":15.82009377,"ECCENTRICITY":0.00015984,"INCLINATION":42.9988,"RA_OF_ASC_NODE":197.0254,"ARG_OF_PERICENTER":287.0947,"MEAN_ANOMALY":262.9767,"EPHEMERIS_TYPE":0,"CLASSIFICATION_TYPE":"U","NORAD_CAT_ID":67947,"ELEMENT_SET_NO":999,"REV_AT_EPOCH":323,"BSTAR":0.00010369576,"MEAN_MOTION_DOT":0.00021348,"MEAN_MOTION_DDOT":0},{"OBJECT_NAME":"NOAA 16 DEB","OBJECT_ID":"2000-055AJ","EPOCH":"2026-03-09T22:45:58.695264","MEAN_MOTION":15.81251105,"ECCENTRICITY":0.00074025,"INCLINATION":99.0584,"RA_OF_ASC_NODE":244.5578,"ARG_OF_PERICENTER":65.5662,"MEAN_ANOMALY":294.6372,"EPHEMERIS_TYPE":0,"CLASSIFICATION_TYPE":"U","NORAD_CAT_ID":41075,"ELEMENT_SET_NO":999,"REV_AT_EPOCH":55075,"BSTAR":0.0049218825,"MEAN_MOTION_DOT":0.01069422,"MEAN_MOTION_DDOT":0}]
